NORAD_CAT_ID,OBJECT_NAME,OBJECT_TYPE,EPOCH,MEAN_MOTION,ECCENTRICITY,INCLINATION,RA_OF_ASC_NODE,ARG_OF_PERICENTER,MEAN_ANOMALY,BSTAR,MEAN_MOTION_DOT,MEAN_MOTION_DDOT,TLE_LINE0,TLE_LINE1,TLE_LINE2,SEMIMAJOR_AXIS,PERIOD,APOGEE,PERIGEE,DECAYED
54200.0,STARLINK-5250,PAYLOAD,2024-04-11 15:52:45,15.08845775,0.000158,53.2186,242.9648,89.3059,270.8114,0.00013822,1.913e-05,0.0,0 STARLINK-5250,1 54200U 22141AV  24102.66164018  .00001913  00000-0  13822-3 0  9995,2 54200  53.2186 242.9648 0001580  89.3059 270.8114 15.08845775 80776,6917.863,95.437,540.821,538.635,0.0
54200.0,STARLINK-5250,PAYLOAD,2024-04-12 14:08:10,15.0883771,0.000146,53.2189,238.8025,91.9551,268.1609,6.9961e-05,8.26e-06,0.0,0 STARLINK-5250,1 54200U 22141AV  24103.58900476  .00000826  00000-0  69961-4 0  9991,2 54200  53.2189 238.8025 0001460  91.9551 268.1609 15.08837710 80910,6917.887,95.438,540.762,538.742,0.0
54200.0,STARLINK-5250,PAYLOAD,2024-04-13 13:58:57,15.08838107,0.0001385,53.2192,234.3425,94.0304,266.0846,1.0213e-05,-1.25e-06,0.0,0 STARLINK-5250,1 54200U 22141AV  24104.58260851 -.00000125  00000-0  10213-4 0  9997,2 54200  53.2192 234.3425 0001385  94.0304 266.0846 15.08838107 81063,6917.886,95.438,540.709,538.793,0.0
54200.0,STARLINK-5250,PAYLOAD,2024-04-13 15:34:20,15.0883927,0.0001402,53.2193,234.0449,94.6913,265.4239,1.6952e-05,-1.8e-07,0.0,0 STARLINK-5250,1 54200U 22141AV  24104.64884743 -.00000018  00000-0  16952-4 0  9993,2 54200  53.2193 234.0449 0001402  94.6913 265.4239 15.08839270 81307,6917.883,95.438,540.718,538.778,0.0
54200.0,STARLINK-5250,PAYLOAD,2024-04-14 13:49:44,15.08834258,0.0001464,53.219,229.8843,114.1104,246.0042,8.8691e-05,1.124e-05,0.0,0 STARLINK-5250,1 54200U 22141AV  24105.57621137  .00001124  00000-0  88691-4 0  9999,2 54200  53.2190 229.8843 0001464 114.1104 246.0042 15.08834258 81210,6917.898,95.438,540.776,538.75,0.0
54200.0,STARLINK-5250,PAYLOAD,2024-04-15 13:40:31,15.08844451,0.0001328,53.2181,225.42,111.5196,248.5938,0.00012049,1.63e-05,0.0,0 STARLINK-5250,1 54200U 22141AV  24106.56980640  .00001630  00000-0  12049-3 0  9991,2 54200  53.2181 225.4200 0001328 111.5196 248.5938 15.08844451 81363,6917.867,95.437,540.65,538.813,0.0
54200.0,STARLINK-5250,PAYLOAD,2024-04-15 16:51:17,15.08845529,0.0001361,53.2182,224.8255,113.4865,246.6271,0.00012773,1.746e-05,0.0,0 STARLINK-5250,1 54200U 22141AV  24106.70228541  .00001746  00000-0  12773-3 0  9994,2 54200  53.2182 224.8255 0001361 113.4865 246.6271 15.08845529 81612,6917.863,95.437,540.67,538.787,0.0
54200.0,STARLINK-5250,PAYLOAD,2024-04-16 13:31:18,15.0885209,0.0001336,53.2167,220.9621,88.9714,271.1431,0.00022956,3.369e-05,0.0,0 STARLINK-5250,1 54200U 22141AV  24107.56340349  .00003369  00000-0  22956-3 0  9997,2 54200  53.2167 220.9621 0001336  88.9714 271.1431 15.08852090 81511,6917.843,95.437,540.633,538.784,0.0
54200.0,STARLINK-5250,PAYLOAD,2024-04-16 15:06:40,15.08864395,0.0001486,53.2178,220.6627,75.3447,284.7709,0.00042507,6.488e-05,0.0,0 STARLINK-5250,1 54200U 22141AV  24107.62963767  .00006488  00000-0  42507-3 0  9998,2 54200  53.2178 220.6627 0001486  75.3447 284.7709 15.08864395 81750,6917.806,95.436,540.699,538.643,0.0
54200.0,STARLINK-5250,PAYLOAD,2024-04-17 11:46:41,15.08848208,0.0001081,53.2153,216.7989,92.8498,267.2618,0.00010788,1.43e-05,0.0,0 STARLINK-5250,1 54200U 22141AV  24108.49076067  .00001430  00000-0  10788-3 0  9990,2 54200  53.2153 216.7989 0001081  92.8498 267.2618 15.08848208 81885,6917.855,95.437,540.468,538.972,0.0
54200.0,STARLINK-5250,PAYLOAD,2024-04-17 14:57:27,15.08855112,0.0001337,53.2162,216.2029,93.6393,266.4752,0.00016209,2.294e-05,0.0,0 STARLINK-5250,1 54200U 22141AV  24108.62323709  .00002294  00000-0  16209-3 0  9996,2 54200  53.2162 216.2029 0001337  93.6393 266.4752 15.08855112 81671,6917.834,95.437,540.624,538.774,0.0
54200.0,STARLINK-5250,PAYLOAD,2024-04-18 13:12:52,15.08832308,0.0001787,53.217,212.0364,68.8313,291.287,-0.00018439,-3.221e-05,0.0,0 STARLINK-5250,1 54200U 22141AV  24109.55061009 -.00003221  00000-0 -18439-3 0  9991,2 54200  53.2170 212.0364 0001787  68.8313 291.2870 15.08832308 82042,6917.904,95.438,541.005,538.533,0.0
54200.0,STARLINK-5250,PAYLOAD,2024-04-19 13:03:40,15.08825966,0.00015,53.2173,207.5766,104.8094,255.3064,-0.00011617,-2.136e-05,0.0,0 STARLINK-5250,1 54200U 22141AV  24110.54422351 -.00002136  00000-0 -11617-3 0  9998,2 54200  53.2173 207.5766 0001500 104.8094 255.3064 15.08825966 81968,6917.923,95.438,540.826,538.751,0.0
54200.0,STARLINK-5250,PAYLOAD,2024-04-19 16:14:27,15.08828598,0.0001454,53.2168,206.9796,111.9398,248.1749,-5.2449e-05,-1.122e-05,0.0,0 STARLINK-5250,1 54200U 22141AV  24110.67670319 -.00001122  00000-0 -52449-4 0  9994,2 54200  53.2168 206.9796 0001454 111.9398 248.1749 15.08828598 82215,6917.915,95.438,540.786,538.774,0.0
54200.0,STARLINK-5250,PAYLOAD,2024-04-20 12:54:27,15.08868374,0.0001769,53.2178,203.1192,89.5018,270.6177,0.00091719,0.00014351,0.0,0 STARLINK-5250,1 54200U 22141AV  24111.53781619  .00014351  00000-0  91719-3 0  9994,2 54200  53.2178 203.1192 0001769  89.5018 270.6177 15.08868374 82348,6917.794,95.436,540.882,538.435,0.0
54200.0,STARLINK-5250,PAYLOAD,2024-04-21 11:09:51,15.08843064,0.0001446,53.2165,198.9562,109.6145,250.5003,-6.6797e-05,-1.351e-05,0.0,0 STARLINK-5250,1 54200U 22141AV  24112.46518037 -.00001351  00000-0 -66797-4 0  9996,2 54200  53.2165 198.9562 0001446 109.6145 250.5003 15.08843064 82257,6917.871,95.437,540.736,538.736,0.0
54200.0,STARLINK-5250,PAYLOAD,2024-04-22 11:00:38,15.08840454,0.0001565,53.217,194.4949,99.052,261.0649,-8.8193e-05,-1.691e-05,0.0,0 STARLINK-5250,1 54200U 22141AV  24113.45878326 -.00001691  00000-0 -88193-4 0  9997,2 54200  53.2170 194.4949 0001565  99.0520 261.0649 15.08840454 82404,6917.879,95.438,540.827,538.661,0.0
54200.0,STARLINK-5250,PAYLOAD,2024-04-22 12:36:01,15.08841677,0.0001539,53.2168,194.1971,97.0402,263.0765,-3.6656e-05,-8.71e-06,0.0,0 STARLINK-5250,1 54200U 22141AV  24113.52502293 -.00000871  00000-0 -36656-4 0  9998,2 54200  53.2168 194.1971 0001539  97.0402 263.0765 15.08841677 82646,6917.875,95.437,540.805,538.676,0.0
54200.0,STARLINK-5250,PAYLOAD,2024-04-23 12:26:49,15.08843121,0.0002448,53.2163,189.7373,48.1117,312.0084,0.00028046,4.178e-05,0.0,0 STARLINK-5250,1 54200U 22141AV  24114.51862949  .00004178  00000-0  28046-3 0  9990,2 54200  53.2163 189.7373 0002448  48.1117 312.0084 15.08843121 82563,6917.871,95.437,541.429,538.042,0.0
54200.0,STARLINK-5250,PAYLOAD,2024-04-24 12:17:35,15.08852801,0.0002107,53.2177,185.274,62.4891,297.6315,0.00020587,2.991e-05,0.0,0 STARLINK-5250,1 54200U 22141AV  24115.51222044  .00002991  00000-0  20587-3 0  9990,2 54200  53.2177 185.2740 0002107  62.4891 297.6315 15.08852801 82949,6917.841,95.437,541.164,538.249,0.0
54200.0,STARLINK-5250,PAYLOAD,2024-04-25 04:11:27,15.08843021,0.0001747,53.2161,182.3033,76.7468,283.3718,-9.1163e-05,-1.739e-05,0.0,0 STARLINK-5250,1 54200U 22141AV  24116.17462362 -.00001739  00000-0 -91163-4 0  9992,2 54200  53.2161 182.3033 0001747  76.7468 283.3718 15.08843021 83047,6917.871,95.437,540.945,538.528,0.0
54200.0,STARLINK-5250,PAYLOAD,2024-04-25 10:32:59,15.0884491,0.0001802,53.215,181.116,76.5185,283.6008,-6.8815e-05,-1.383e-05,0.0,0 STARLINK-5250,1 54200U 22141AV  24116.43958210 -.00001383  00000-0 -68815-4 0  9996,2 54200  53.2150 181.1160 0001802  76.5185 283.6008 15.08844910 82850,6917.865,95.437,540.977,538.484,0.0
54200.0,STARLINK-5250,PAYLOAD,2024-04-26 10:23:46,15.08852499,0.000178,53.2143,176.6527,97.3643,262.7552,9.7741e-05,1.268e-05,0.0,0 STARLINK-5250,1 54200U 22141AV  24117.43317572  .00001268  00000-0  97741-4 0  9997,2 54200  53.2143 176.6527 0001780  97.3643 262.7552 15.08852499 83239,6917.842,95.437,540.939,538.476,0.0
54200.0,STARLINK-5250,PAYLOAD,2024-04-26 13:34:32,15.08852393,0.0001623,53.2164,176.0568,87.6936,272.4242,7.6268e-05,9.26e-06,0.0,0 STARLINK-5250,1 54200U 22141AV  24117.56565422  .00000926  00000-0  76268-4 0  9991,2 54200  53.2164 176.0568 0001623  87.6936 272.4242 15.08852393 83028,6917.843,95.437,540.83,538.585,0.0
54200.0,STARLINK-5250,PAYLOAD,2024-04-27 03:53:01,15.08841035,0.000175,53.2167,173.3796,106.6064,253.5121,0.00015507,2.181e-05,0.0,0 STARLINK-5250,1 54200U 22141AV  24118.16182010  .00002181  00000-0  15507-3 0  9999,2 54200  53.2167 173.3796 0001750 106.6064 253.5121 15.08841035 83341,6917.877,95.437,540.953,538.532,0.0
54200.0,STARLINK-5250,PAYLOAD,2024-04-27 10:14:33,15.08850956,0.0001538,53.215,172.1925,94.7489,265.3679,0.00020391,2.96e-05,0.0,0 STARLINK-5250,1 54200U 22141AV  24118.42677651  .00002960  00000-0  20391-3 0  9990,2 54200  53.2150 172.1925 0001538  94.7489 265.3679 15.08850956 83156,6917.847,95.437,540.776,538.648,0.0
54200.0,STARLINK-5250,PAYLOAD,2024-04-28 03:43:48,15.08831078,0.00016,53.2163,168.9192,94.5672,265.5503,-5.2795e-05,-1.128e-05,0.0,0 STARLINK-5250,1 54200U 22141AV  24119.15542537 -.00001128  00000-0 -52795-4 0  9996,2 54200  53.2163 168.9192 0001600  94.5672 265.5503 15.08831078 83490,6917.908,95.438,540.88,538.666,0.0
54200.0,STARLINK-5250,PAYLOAD,2024-04-28 10:05:22,15.08825272,0.0001365,53.2156,167.734,82.0788,278.0359,-8.8024e-05,-1.688e-05,0.0,0 STARLINK-5250,1 54200U 22141AV  24119.42039627 -.00001688  00000-0 -88024-4 0  9992,2 54200  53.2156 167.7340 0001365  82.0788 278.0359 15.08825272 83534,6917.925,95.438,540.735,538.846,0.0
54200.0,STARLINK-5250,PAYLOAD,2024-04-28 19:37:40,15.08828766,0.0001412,53.2157,165.9497,83.2465,276.8688,-5.6428e-05,-1.186e-05,0.0,0 STARLINK-5250,1 54200U 22141AV  24119.81783527 -.00001186  00000-0 -56428-4 0  9996,2 54200  53.2157 165.9497 0001412  83.2465 276.8688 15.08828766 83369,6917.915,95.438,540.757,538.803,0.0
54200.0,STARLINK-5250,PAYLOAD,2024-04-29 03:34:36,15.0883329,0.0001361,53.2171,164.4604,86.9925,273.1223,-2.5442e-06,-3.28e-06,0.0,0 STARLINK-5250,1 54200U 22141AV  24120.14903259 -.00000328  00000-0 -25442-5 0  9990,2 54200  53.2171 164.4604 0001361  86.9925 273.1223 15.08833290 83647,6917.901,95.438,540.707,538.824,0.0
